STARLINK-6218           
1 57368U 23099AS  25324.77225302  .00000351  00000+0  41027-4 0  9992
2 57368  43.0017 107.6718 0001627 268.9386  91.1270 15.02535298129882
STARLINK-6168           
1 57369U 23099AT  25324.11635280  .00000520  00000+0  53562-4 0  9996
2 57369  43.0039 111.3540 0001133 271.7051  88.3662 15.02537861129785
STARLINK-5353           
1 57370U 23099AU  25324.76559239  .00000409  00000+0  45386-4 0  9999
2 57370  43.0032 107.6185 0001372 274.3760  85.6925 15.02534856129888
STARLINK-6032           
1 57371U 23099AV  25323.78174315 -.00000283  00000+0 -58521-5 0  9997
2 57371  43.0025 113.1415 0001249 271.0740  88.9960 15.02539037129739
STARLINK-5975           
1 57372U 23099AW  25324.82429860  .00000196  00000+0  29564-4 0  9997
2 57372  43.0027 107.1920 0001139 272.9109  87.1603 15.02536581129896
STARLINK-6370           
1 57373U 23099AX  25324.68036403  .00000265  00000+0  34680-4 0  9991
2 57373  43.0034 108.6918 0001393 266.3584  93.7099 15.02534864129865
STARLINK-6369           
1 57374U 23099AY  25324.71713096  .00000797  00000+0  74038-4 0  9997
2 57374  43.0043  95.1071 0001353 267.8589  92.2098 15.02537022130025
STARLINK-6363           
1 57375U 23099AZ  25324.76449765  .00001430  00000+0  12087-3 0  9992
2 57375  43.0040 107.6119 0001401 281.9815  78.0870 15.02541152129889
STARLINK-6367           
1 57376U 23099BA  25323.69084047  .00008736  00000+0  66059-3 0  9996
2 57376  43.0015 113.3176 0001366 266.5290  93.5396 15.02558999129720
STARLINK-6358           
1 57377U 23099BB  25324.75894015  .00000244  00000+0  33178-4 0  9992
2 57377  43.0031 107.5737 0002336 267.1589  92.8985 15.02532970129887
STARLINK-6364           
1 57378U 23099BC  25324.71294690  .00001307  00000+0  11185-3 0  9996
2 57378  43.0034  82.0754 0002314 258.1228 101.9355 15.02523689130919
STARLINK-6361           
1 57379U 23099BD  25324.82208375 -.00000548  00000+0 -25469-4 0  9993
2 57379  43.0021 107.1876 0001318 272.2080  87.8611 15.02536267129894
STARLINK-6366           
1 57380U 23099BE  25324.04706580  .00000259  00000+0  34253-4 0  9998
2 57380  43.0028  85.6720 0000991 286.2245  73.8488 15.02524350130805
STARLINK-6371           
1 57381U 23099BF  25324.74154425  .00000313  00000+0  38265-4 0  9999
2 57381  43.0038  95.2770 0001414 273.0945  86.9735 15.02536455130765
STARLINK-30240          
1 57404U 23102A   25324.79973082  .00000149  00000+0  26123-4 0  9990
2 57404  43.0030 120.7974 0001273 266.6787  93.3910 15.02534720129856
STARLINK-30192          
1 57405U 23102B   25325.16668980  .01163653  00000+0  24943-1 0  9997
2 57405  43.0000 113.2367 0001172 286.0093  85.9634 15.41184530  5846
