[{"OBJECT_NAME":"STARLINK-6218","OBJECT_ID":"2023-099AS","EPOCH":"2025-11-20T18:32:02.660928","MEAN_MOTION":15.02535298,"ECCENTRICITY":0.00016272,"INCLINATION":43.0017,"RA_OF_ASC_NODE":107.6718,"ARG_OF_PERICENTER":268.9386,"MEAN_ANOMALY":91.127,"EPHEMERIS_TYPE":0,"CLASSIFICATION_TYPE":"U","NORAD_CAT_ID":57368,"ELEMENT_SET_NO":999,"REV_AT_EPOCH":12988,"BSTAR":4.1027122e-5,"MEAN_MOTION_DOT":3.51e-6,"MEAN_MOTION_DDOT":0},{"OBJECT_NAME":"STARLINK-6168","OBJECT_ID":"2023-099AT","EPOCH":"2025-11-20T02:47:32.881920","MEAN_MOTION":15.02537861,"ECCENTRICITY":0.00011331,"INCLINATION":43.0039,"RA_OF_ASC_NODE":111.354,"ARG_OF_PERICENTER":271.7051,"MEAN_ANOMALY":88.3662,"EPHEMERIS_TYPE":0,"CLASSIFICATION_TYPE":"U","NORAD_CAT_ID":57369,"ELEMENT_SET_NO":999,"REV_AT_EPOCH":12978,"BSTAR":5.3562377e-5,"MEAN_MOTION_DOT":5.2e-6,"MEAN_MOTION_DDOT":0},{"OBJECT_NAME":"STARLINK-5353","OBJECT_ID":"2023-099AU","EPOCH":"2025-11-20T18:22:27.182496","MEAN_MOTION":15.02534856,"ECCENTRICITY":0.00013725,"INCLINATION":43.0032,"RA_OF_ASC_NODE":107.6185,"ARG_OF_PERICENTER":274.376,"MEAN_ANOMALY":85.6925,"EPHEMERIS_TYPE":0,"CLASSIFICATION_TYPE":"U","NORAD_CAT_ID":57370,"ELEMENT_SET_NO":999,"REV_AT_EPOCH":12988,"BSTAR":4.5385847e-5,"MEAN_MOTION_DOT":4.09e-6,"MEAN_MOTION_DDOT":0},{"OBJECT_NAME":"STARLINK-6032","OBJECT_ID":"2023-099AV","EPOCH":"2025-11-19T18:45:42.608160","MEAN_MOTION":15.02539037,"ECCENTRICITY":0.00012497,"INCLINATION":43.0025,"RA_OF_ASC_NODE":113.1415,"ARG_OF_PERICENTER":271.074,"MEAN_ANOMALY":88.996,"EPHEMERIS_TYPE":0,"CLASSIFICATION_TYPE":"U","NORAD_CAT_ID":57371,"ELEMENT_SET_NO":999,"REV_AT_EPOCH":12973,"BSTAR":-5.852127e-6,"MEAN_MOTION_DOT":-2.83e-6,"MEAN_MOTION_DDOT":0},{"OBJECT_NAME":"STARLINK-5975","OBJECT_ID":"2023-099AW","EPOCH":"2025-11-20T19:46:59.399040","MEAN_MOTION":15.02536581,"ECCENTRICITY":0.0001139,"INCLINATION":43.0027,"RA_OF_ASC_NODE":107.192,"ARG_OF_PERICENTER":272.9109,"MEAN_ANOMALY":87.1603,"EPHEMERIS_TYPE":0,"CLASSIFICATION_TYPE":"U","NORAD_CAT_ID":57372,"ELEMENT_SET_NO":999,"REV_AT_EPOCH":12989,"BSTAR":2.9564e-5,"MEAN_MOTION_DOT":1.96e-6,"MEAN_MOTION_DDOT":0},{"OBJECT_NAME":"STARLINK-6370","OBJECT_ID":"2023-099AX","EPOCH":"2025-11-20T16:19:43.452192","MEAN_MOTION":15.02534864,"ECCENTRICITY":0.00013931,"INCLINATION":43.0034,"RA_OF_ASC_NODE":108.6918,"ARG_OF_PERICENTER":266.3584,"MEAN_ANOMALY":93.7099,"EPHEMERIS_TYPE":0,"CLASSIFICATION_TYPE":"U","NORAD_CAT_ID":57373,"ELEMENT_SET_NO":999,"REV_AT_EPOCH":12986,"BSTAR":3.4679758e-5,"MEAN_MOTION_DOT":2.65e-6,"MEAN_MOTION_DDOT":0},{"OBJECT_NAME":"STARLINK-6369","OBJECT_ID":"2023-099AY","EPOCH":"2025-11-20T17:12:40.114944","MEAN_MOTION":15.02537022,"ECCENTRICITY":0.00013532,"INCLINATION":43.0043,"RA_OF_ASC_NODE":95.1071,"ARG_OF_PERICENTER":267.8589,"MEAN_ANOMALY":92.2098,"EPHEMERIS_TYPE":0,"CLASSIFICATION_TYPE":"U","NORAD_CAT_ID":57374,"ELEMENT_SET_NO":999,"REV_AT_EPOCH":13002,"BSTAR":7.4037784e-5,"MEAN_MOTION_DOT":7.97e-6,"MEAN_MOTION_DDOT":0},{"OBJECT_NAME":"STARLINK-6363","OBJECT_ID":"2023-099AZ","EPOCH":"2025-11-20T18:20:52.596960","MEAN_MOTION":15.02541152,"ECCENTRICITY":0.00014018,"INCLINATION":43.004,"RA_OF_ASC_NODE":107.6119,"ARG_OF_PERICENTER":281.9815,"MEAN_ANOMALY":78.087,"EPHEMERIS_TYPE":0,"CLASSIFICATION_TYPE":"U","NORAD_CAT_ID":57375,"ELEMENT_SET_NO":999,"REV_AT_EPOCH":12988,"BSTAR":0.00012086842,"MEAN_MOTION_DOT":1.43e-5,"MEAN_MOTION_DDOT":0},{"OBJECT_NAME":"STARLINK-6367","OBJECT_ID":"2023-099BA","EPOCH":"2025-11-19T16:34:48.616608","MEAN_MOTION":15.02558999,"ECCENTRICITY":0.0001366,"INCLINATION":43.0015,"RA_OF_ASC_NODE":113.3176,"ARG_OF_PERICENTER":266.529,"MEAN_ANOMALY":93.5396,"EPHEMERIS_TYPE":0,"CLASSIFICATION_TYPE":"U","NORAD_CAT_ID":57376,"ELEMENT_SET_NO":999,"REV_AT_EPOCH":12972,"BSTAR":0.00066059017,"MEAN_MOTION_DOT":8.736e-5,"MEAN_MOTION_DDOT":0},{"OBJECT_NAME":"STARLINK-6358","OBJECT_ID":"2023-099BB","EPOCH":"2025-11-20T18:12:52.428960","MEAN_MOTION":15.0253297,"ECCENTRICITY":0.00023367,"INCLINATION":43.0031,"RA_OF_ASC_NODE":107.5737,"ARG_OF_PERICENTER":267.1589,"MEAN_ANOMALY":92.8985,"EPHEMERIS_TYPE":0,"CLASSIFICATION_TYPE":"U","NORAD_CAT_ID":57377,"ELEMENT_SET_NO":999,"REV_AT_EPOCH":12988,"BSTAR":3.3178416e-5,"MEAN_MOTION_DOT":2.44e-6,"MEAN_MOTION_DDOT":0},{"OBJECT_NAME":"STARLINK-6364","OBJECT_ID":"2023-099BC","EPOCH":"2025-11-20T17:06:38.612160","MEAN_MOTION":15.02523689,"ECCENTRICITY":0.00023148,"INCLINATION":43.0034,"RA_OF_ASC_NODE":82.0754,"ARG_OF_PERICENTER":258.1228,"MEAN_ANOMALY":101.9355,"EPHEMERIS_TYPE":0,"CLASSIFICATION_TYPE":"U","NORAD_CAT_ID":57378,"ELEMENT_SET_NO":999,"REV_AT_EPOCH":13091,"BSTAR":0.00011184954,"MEAN_MOTION_DOT":1.307e-5,"MEAN_MOTION_DDOT":0},{"OBJECT_NAME":"STARLINK-6361","OBJECT_ID":"2023-099BD","EPOCH":"2025-11-20T19:43:48.036000","MEAN_MOTION":15.02536267,"ECCENTRICITY":0.0001318,"INCLINATION":43.0021,"RA_OF_ASC_NODE":107.1876,"ARG_OF_PERICENTER":272.208,"MEAN_ANOMALY":87.8611,"EPHEMERIS_TYPE":0,"CLASSIFICATION_TYPE":"U","NORAD_CAT_ID":57379,"ELEMENT_SET_NO":999,"REV_AT_EPOCH":12989,"BSTAR":-2.5469e-5,"MEAN_MOTION_DOT":-5.48e-6,"MEAN_MOTION_DDOT":0},{"OBJECT_NAME":"STARLINK-6366","OBJECT_ID":"2023-099BE","EPOCH":"2025-11-20T01:07:46.485120","MEAN_MOTION":15.0252435,"ECCENTRICITY":9.912e-5,"INCLINATION":43.0028,"RA_OF_ASC_NODE":85.672,"ARG_OF_PERICENTER":286.2245,"MEAN_ANOMALY":73.8488,"EPHEMERIS_TYPE":0,"CLASSIFICATION_TYPE":"U","NORAD_CAT_ID":57380,"ELEMENT_SET_NO":999,"REV_AT_EPOCH":13080,"BSTAR":3.4253005e-5,"MEAN_MOTION_DOT":2.59e-6,"MEAN_MOTION_DDOT":0},{"OBJECT_NAME":"STARLINK-6371","OBJECT_ID":"2023-099BF","EPOCH":"2025-11-20T17:47:49.423200","MEAN_MOTION":15.02536455,"ECCENTRICITY":0.00014141,"INCLINATION":43.0038,"RA_OF_ASC_NODE":95.277,"ARG_OF_PERICENTER":273.0945,"MEAN_ANOMALY":86.9735,"EPHEMERIS_TYPE":0,"CLASSIFICATION_TYPE":"U","NORAD_CAT_ID":57381,"ELEMENT_SET_NO":999,"REV_AT_EPOCH":13076,"BSTAR":3.826475e-5,"MEAN_MOTION_DOT":3.13e-6,"MEAN_MOTION_DDOT":0},{"OBJECT_NAME":"STARLINK-30240","OBJECT_ID":"2023-102A","EPOCH":"2025-11-20T19:11:36.742848","MEAN_MOTION":15.0253472,"ECCENTRICITY":0.0001273,"INCLINATION":43.003,"RA_OF_ASC_NODE":120.7974,"ARG_OF_PERICENTER":266.6787,"MEAN_ANOMALY":93.391,"EPHEMERIS_TYPE":0,"CLASSIFICATION_TYPE":"U","NORAD_CAT_ID":57404,"ELEMENT_SET_NO":999,"REV_AT_EPOCH":12985,"BSTAR":2.6123e-5,"MEAN_MOTION_DOT":1.49e-6,"MEAN_MOTION_DDOT":0},{"OBJECT_NAME":"STARLINK-30192","OBJECT_ID":"2023-102B","EPOCH":"2025-11-21T04:00:01.998720","MEAN_MOTION":15.4118453,"ECCENTRICITY":0.0001172,"INCLINATION":43,"RA_OF_ASC_NODE":113.2367,"ARG_OF_PERICENTER":286.0093,"MEAN_ANOMALY":85.9634,"EPHEMERIS_TYPE":0,"CLASSIFICATION_TYPE":"U","NORAD_CAT_ID":57405,"ELEMENT_SET_NO":999,"REV_AT_EPOCH":584,"BSTAR":0.024943,"MEAN_MOTION_DOT":0.01163653,"MEAN_MOTION_DDOT":0}]
